[{"OBJECT_NAME":"STARLINK-30369","OBJECT_ID":"2023-134L","EPOCH":"2026-03-09T09:33:22.683744","MEAN_MOTION":15.27583915,"ECCENTRICITY":5.237e-5,"INCLINATION":42.9965,"RA_OF_ASC_NODE":195.9954,"ARG_OF_PERICENTER":285.4922,"MEAN_ANOMALY":74.5872,"EPHEMERIS_TYPE":0,"CLASSIFICATION_TYPE":"U","NORAD_CAT_ID":57781,"ELEMENT_SET_NO":999,"REV_AT_EPOCH":13946,"BSTAR":1.0491888e-5,"MEAN_MOTION_DOT":2.7e-7,"MEAN_MOTION_DDOT":0},{"OBJECT_NAME":"CZ-4C R\/B","OBJECT_ID":"2013-037D","EPOCH":"2026-03-09T18:06:56.075616","MEAN_MOTION":15.35625196,"ECCENTRICITY":0.00667653,"INCLINATION":97.9623,"RA_OF_ASC_NODE":344.221,"ARG_OF_PERICENTER":268.5523,"MEAN_ANOMALY":90.807,"EPHEMERIS_TYPE":0,"CLASSIFICATION_TYPE":"U","NORAD_CAT_ID":39211,"ELEMENT_SET_NO":999,"REV_AT_EPOCH":69561,"BSTAR":0.000391022,"MEAN_MOTION_DOT":0.00014492,"MEAN_MOTION_DDOT":0}]
